{"type":"FeatureCollection","features":[{"type":"Feature","properties":{"cluster_id":1,"hex_count":36,"total_addressable_demand":83515.26332087572,"mean_opportunity_score":67.15941420629784,"dominant_class":"proven_market_no_pv","province":"QC","anchor_city":"Petite-Italie"},"geometry":{"type":"MultiPolygon","coordinates":[[[[-73.66767,45.45328],[-73.67253,45.45689],[-73.67961,45.45581],[-73.68447,45.45942],[-73.68226,45.4641],[-73.67519,45.46518],[-73.67298,45.46987],[-73.67784,45.47347],[-73.67563,45.47816],[-73.6805,45.48177],[-73.67829,45.48645],[-73.67121,45.48753],[-73.66634,45.48392],[-73.65926,45.485],[-73.65705,45.48969],[-73.64997,45.49076],[-73.64775,45.49545],[-73.65262,45.49906],[-73.65041,45.50374],[-73.65527,45.50735],[-73.65306,45.51204],[-73.64597,45.51312],[-73.64111,45.50951],[-73.63402,45.51058],[-73.62916,45.50697],[-73.62207,45.50805],[-73.61985,45.51273],[-73.61277,45.51381],[-73.6079,45.5102],[-73.61012,45.50551],[-73.61721,45.50444],[-73.61942,45.49975],[-73.61456,45.49614],[-73.60748,45.49722],[-73.60526,45.5019],[-73.59817,45.50298],[-73.59331,45.49936],[-73.58623,45.50044],[-73.584,45.50512],[-73.57692,45.50619],[-73.57206,45.50258],[-73.57428,45.4979],[-73.58136,45.49683],[-73.58359,45.49214],[-73.59067,45.49107],[-73.59289,45.48638],[-73.58803,45.48277],[-73.59025,45.47809],[-73.59733,45.47702],[-73.60219,45.48063],[-73.60927,45.47955],[-73.61413,45.48316],[-73.61191,45.48785],[-73.61678,45.49146],[-73.62386,45.49038],[-73.62608,45.4857],[-73.62121,45.48209],[-73.62343,45.4774],[-73.61857,45.47379],[-73.62078,45.46911],[-73.61592,45.4655],[-73.61814,45.46082],[-73.62521,45.45974],[-73.62743,45.45506],[-73.63451,45.45398],[-73.63937,45.45759],[-73.64644,45.45651],[-73.64866,45.45183],[-73.65573,45.45075],[-73.66059,45.45436],[-73.66767,45.45328]]]]}},{"type":"Feature","properties":{"cluster_id":2,"hex_count":36,"total_addressable_demand":28745.11856309762,"mean_opportunity_score":69.33716792338161,"dominant_class":"proven_market_no_pv","province":"QC","anchor_city":"Sherbrooke"},"geometry":{"type":"MultiPolygon","coordinates":[[[[-72.00776,45.35146],[-72.01247,45.35513],[-72.0101,45.35977],[-72.00301,45.36074],[-72.00063,45.36539],[-72.00535,45.36906],[-72.00297,45.3737],[-71.99588,45.37468],[-71.9935,45.37932],[-71.99821,45.38299],[-71.99584,45.38763],[-71.98874,45.38861],[-71.98636,45.39325],[-71.97927,45.39422],[-71.97456,45.39055],[-71.96747,45.39152],[-71.96276,45.38785],[-71.96514,45.38321],[-71.96043,45.37953],[-71.95334,45.3805],[-71.95096,45.38515],[-71.95567,45.38882],[-71.95328,45.39346],[-71.95799,45.39714],[-71.95561,45.40178],[-71.96032,45.40545],[-71.95794,45.4101],[-71.96265,45.41377],[-71.96027,45.41842],[-71.95317,45.41939],[-71.94846,45.41571],[-71.94136,45.41668],[-71.93898,45.42133],[-71.93188,45.4223],[-71.92717,45.41862],[-71.92007,45.41959],[-71.91768,45.42424],[-71.91058,45.4252],[-71.90587,45.42153],[-71.90826,45.41688],[-71.90356,45.41321],[-71.90594,45.40856],[-71.91304,45.4076],[-71.91543,45.40295],[-71.91072,45.39928],[-71.90363,45.40025],[-71.89892,45.39657],[-71.90131,45.39193],[-71.9084,45.39096],[-71.91079,45.38632],[-71.91788,45.38535],[-71.92027,45.38071],[-71.92736,45.37974],[-71.93207,45.38341],[-71.93916,45.38244],[-71.94154,45.3778],[-71.94863,45.37683],[-71.95101,45.37219],[-71.94631,45.36852],[-71.94869,45.36387],[-71.95578,45.3629],[-71.96048,45.36658],[-71.96757,45.36561],[-71.96995,45.36096],[-71.97704,45.35999],[-71.97942,45.35535],[-71.9865,45.35438],[-71.98888,45.34973],[-71.99597,45.34876],[-72.00068,45.35243],[-72.00776,45.35146]]]]}},{"type":"Feature","properties":{"cluster_id":3,"hex_count":20,"total_addressable_demand":24453.835340728558,"mean_opportunity_score":62.949760096268356,"dominant_class":"proven_market_no_pv","province":"QC","anchor_city":"Montr\u00e9al"},"geometry":{"type":"MultiPolygon","coordinates":[[[[-73.74292,45.50269],[-73.74072,45.50738],[-73.7456,45.51098],[-73.74339,45.51567],[-73.74827,45.51928],[-73.75535,45.51819],[-73.76023,45.5218],[-73.75803,45.52649],[-73.75094,45.52757],[-73.74873,45.53226],[-73.75361,45.53587],[-73.75141,45.54056],[-73.75629,45.54416],[-73.76338,45.54308],[-73.76826,45.54669],[-73.76605,45.55138],[-73.75897,45.55246],[-73.75676,45.55715],[-73.74967,45.55824],[-73.74479,45.55463],[-73.7377,45.55571],[-73.73282,45.5521],[-73.73503,45.54741],[-73.74211,45.54633],[-73.74432,45.54164],[-73.73944,45.53803],[-73.73235,45.53912],[-73.72748,45.53551],[-73.72039,45.53659],[-73.71551,45.53298],[-73.71772,45.5283],[-73.71285,45.52469],[-73.71505,45.52],[-73.71018,45.51639],[-73.7031,45.51747],[-73.69822,45.51387],[-73.70043,45.50918],[-73.70752,45.5081],[-73.70972,45.50341],[-73.71681,45.50233],[-73.71901,45.49764],[-73.72609,45.49656],[-73.73097,45.50017],[-73.73805,45.49908],[-73.74292,45.50269]]]]}},{"type":"Feature","properties":{"cluster_id":4,"hex_count":25,"total_addressable_demand":21024.416183224766,"mean_opportunity_score":70.11351144938355,"dominant_class":"proven_market_no_pv","province":"QC","anchor_city":"Qu\u00e9bec"},"geometry":{"type":"MultiPolygon","coordinates":[[[[-71.17705,46.77563],[-71.17958,46.77095],[-71.18691,46.77002],[-71.1917,46.77377],[-71.19903,46.77285],[-71.20382,46.7766],[-71.20128,46.78128],[-71.19395,46.78221],[-71.19142,46.78689],[-71.19621,46.79064],[-71.19367,46.79533],[-71.19846,46.79908],[-71.19592,46.80376],[-71.18859,46.80469],[-71.18605,46.80937],[-71.19084,46.81313],[-71.1883,46.81781],[-71.18097,46.81874],[-71.17842,46.82342],[-71.17109,46.82435],[-71.16854,46.82903],[-71.16121,46.82995],[-71.15641,46.8262],[-71.14908,46.82712],[-71.14653,46.83181],[-71.13919,46.83273],[-71.1344,46.82897],[-71.12706,46.8299],[-71.12227,46.82614],[-71.11494,46.82706],[-71.11015,46.8233],[-71.1127,46.81862],[-71.12003,46.8177],[-71.12482,46.82146],[-71.13216,46.82053],[-71.13471,46.81585],[-71.12992,46.8121],[-71.13246,46.80742],[-71.1398,46.80649],[-71.14459,46.81025],[-71.15192,46.80932],[-71.15446,46.80464],[-71.1618,46.80372],[-71.16659,46.80747],[-71.17392,46.80654],[-71.17646,46.80186],[-71.17167,46.79811],[-71.16434,46.79903],[-71.15955,46.79528],[-71.15222,46.7962],[-71.14743,46.79245],[-71.14997,46.78777],[-71.1573,46.78684],[-71.15985,46.78216],[-71.16718,46.78124],[-71.16972,46.77656],[-71.17705,46.77563]]]]}},{"type":"Feature","properties":{"cluster_id":5,"hex_count":11,"total_addressable_demand":19853.70724573535,"mean_opportunity_score":66.08266421788204,"dominant_class":"proven_market_no_pv","province":"QC","anchor_city":"Montr\u00e9al"},"geometry":{"type":"MultiPolygon","coordinates":[[[[-73.63806,45.41867],[-73.63585,45.42335],[-73.64071,45.42696],[-73.6385,45.43164],[-73.64336,45.43525],[-73.64115,45.43993],[-73.63407,45.44101],[-73.63186,45.44569],[-73.62478,45.44677],[-73.61993,45.44316],[-73.61285,45.44423],[-73.60799,45.44062],[-73.61021,45.43594],[-73.60535,45.43233],[-73.59828,45.43341],[-73.59342,45.4298],[-73.59564,45.42512],[-73.60271,45.42404],[-73.60493,45.41936],[-73.612,45.41829],[-73.61421,45.41361],[-73.62128,45.41253],[-73.62614,45.41614],[-73.63321,45.41506],[-73.63806,45.41867]]]]}},{"type":"Feature","properties":{"cluster_id":6,"hex_count":22,"total_addressable_demand":15984.156056144551,"mean_opportunity_score":77.77466232820377,"dominant_class":"proven_market_no_pv","province":"QC","anchor_city":"Edmundston"},"geometry":{"type":"MultiPolygon","coordinates":[[[[-68.60184,48.42557],[-68.59893,48.43024],[-68.59129,48.431],[-68.58838,48.43567],[-68.58074,48.43643],[-68.57783,48.4411],[-68.57019,48.44186],[-68.56547,48.43795],[-68.55783,48.4387],[-68.55491,48.44337],[-68.54727,48.44413],[-68.54435,48.4488],[-68.53671,48.44955],[-68.53379,48.45422],[-68.52615,48.45498],[-68.52323,48.45964],[-68.52795,48.46356],[-68.52503,48.46823],[-68.51738,48.46898],[-68.51266,48.46507],[-68.51559,48.4604],[-68.51087,48.45648],[-68.50323,48.45724],[-68.49851,48.45332],[-68.49087,48.45408],[-68.48616,48.45016],[-68.48908,48.44549],[-68.49672,48.44474],[-68.49964,48.44007],[-68.49493,48.43616],[-68.49785,48.43149],[-68.50549,48.43074],[-68.50841,48.42607],[-68.51605,48.42532],[-68.52076,48.42923],[-68.5284,48.42848],[-68.53132,48.42381],[-68.53895,48.42306],[-68.54367,48.42697],[-68.55131,48.42621],[-68.55603,48.43012],[-68.56366,48.42937],[-68.56658,48.4247],[-68.57421,48.42394],[-68.57893,48.42785],[-68.58657,48.42709],[-68.58948,48.42242],[-68.59712,48.42166],[-68.60184,48.42557]]]]}},{"type":"Feature","properties":{"cluster_id":7,"hex_count":24,"total_addressable_demand":14896.681445680197,"mean_opportunity_score":65.58341007944101,"dominant_class":"proven_market_no_pv","province":"QC","anchor_city":"Berthierville"},"geometry":{"type":"MultiPolygon","coordinates":[[[[-73.13725,46.00706],[-73.13008,46.00811],[-73.12778,46.01281],[-73.13266,46.01646],[-73.13984,46.01541],[-73.14213,46.01071],[-73.1493,46.00966],[-73.15418,46.01331],[-73.15189,46.01801],[-73.15677,46.02166],[-73.15448,46.02635],[-73.15936,46.03],[-73.15707,46.0347],[-73.14989,46.03575],[-73.14501,46.0321],[-73.13783,46.03315],[-73.13554,46.03785],[-73.14042,46.0415],[-73.13813,46.04619],[-73.13095,46.04724],[-73.12606,46.04359],[-73.11888,46.04464],[-73.11659,46.04934],[-73.10941,46.05038],[-73.10452,46.04673],[-73.09734,46.04778],[-73.09504,46.05248],[-73.08786,46.05352],[-73.08298,46.04987],[-73.08528,46.04517],[-73.08041,46.04152],[-73.08271,46.03682],[-73.07783,46.03317],[-73.08013,46.02848],[-73.08731,46.02743],[-73.08961,46.02274],[-73.09678,46.02169],[-73.09908,46.01699],[-73.10626,46.01595],[-73.10856,46.01125],[-73.11573,46.01021],[-73.11803,46.00551],[-73.1252,46.00446],[-73.12749,45.99977],[-73.13467,45.99872],[-73.13954,46.00237],[-73.13725,46.00706]]]]}},{"type":"Feature","properties":{"cluster_id":8,"hex_count":13,"total_addressable_demand":11958.775769073176,"mean_opportunity_score":66.21230165498959,"dominant_class":"proven_market_no_pv","province":"QC","anchor_city":"Qu\u00e9bec"},"geometry":{"type":"MultiPolygon","coordinates":[[[[-71.23093,46.87785],[-71.22839,46.88254],[-71.22105,46.88347],[-71.21851,46.88815],[-71.21116,46.88908],[-71.20862,46.89377],[-71.21342,46.89753],[-71.22077,46.8966],[-71.22331,46.89191],[-71.23066,46.89098],[-71.23547,46.89474],[-71.23293,46.89942],[-71.22558,46.90035],[-71.22303,46.90504],[-71.21568,46.90597],[-71.21314,46.91066],[-71.21795,46.91441],[-71.2154,46.9191],[-71.20805,46.92003],[-71.20551,46.92472],[-71.19815,46.92565],[-71.19335,46.92189],[-71.19589,46.9172],[-71.19109,46.91344],[-71.19363,46.90876],[-71.18883,46.905],[-71.19138,46.90031],[-71.18657,46.89656],[-71.18912,46.89187],[-71.18432,46.88811],[-71.18686,46.88343],[-71.19421,46.8825],[-71.19901,46.88626],[-71.20636,46.88533],[-71.2089,46.88064],[-71.21624,46.87971],[-71.21879,46.87503],[-71.22613,46.8741],[-71.23093,46.87785]]]]}},{"type":"Feature","properties":{"cluster_id":9,"hex_count":16,"total_addressable_demand":9988.327353379842,"mean_opportunity_score":77.62090666527266,"dominant_class":"true_whitespace","province":"QC","anchor_city":"St-Lambert-de-Lauzon"},"geometry":{"type":"MultiPolygon","coordinates":[[[[-70.69054,46.10253],[-70.68799,46.10717],[-70.69266,46.11092],[-70.69011,46.11556],[-70.68289,46.11646],[-70.68034,46.1211],[-70.68501,46.12485],[-70.68246,46.12949],[-70.67523,46.13038],[-70.67056,46.12663],[-70.66333,46.12753],[-70.66077,46.13217],[-70.65355,46.13306],[-70.64888,46.12931],[-70.65143,46.12467],[-70.64676,46.12092],[-70.64932,46.11627],[-70.64465,46.11252],[-70.63742,46.11341],[-70.63276,46.10966],[-70.62553,46.11055],[-70.62087,46.1068],[-70.62342,46.10216],[-70.61876,46.09841],[-70.62132,46.09377],[-70.62854,46.09288],[-70.6332,46.09663],[-70.64043,46.09574],[-70.64509,46.09949],[-70.65231,46.0986],[-70.65698,46.10235],[-70.6642,46.10146],[-70.66887,46.10521],[-70.6761,46.10432],[-70.67865,46.09967],[-70.68587,46.09878],[-70.69054,46.10253]]]]}},{"type":"Feature","properties":{"cluster_id":10,"hex_count":4,"total_addressable_demand":8925.71952230249,"mean_opportunity_score":66.41179153658378,"dominant_class":"proven_market_no_pv","province":"QC","anchor_city":"Montr\u00e9al"},"geometry":{"type":"MultiPolygon","coordinates":[[[[-73.62644,45.56829],[-73.62866,45.5636],[-73.63576,45.56253],[-73.64063,45.56614],[-73.64772,45.56506],[-73.6526,45.56867],[-73.65969,45.56759],[-73.66457,45.57121],[-73.66235,45.5759],[-73.65526,45.57697],[-73.65304,45.58166],[-73.64594,45.58274],[-73.64107,45.57913],[-73.64329,45.57444],[-73.63841,45.57083],[-73.63132,45.5719],[-73.62644,45.56829]]]]}},{"type":"Feature","properties":{"cluster_id":11,"hex_count":12,"total_addressable_demand":8773.229926510829,"mean_opportunity_score":79.18922256796621,"dominant_class":"proven_market_no_pv","province":"NT_NU","anchor_city":"Fort McMurray"},"geometry":{"type":"MultiPolygon","coordinates":[[[[-114.4192,62.43137],[-114.42253,62.43614],[-114.43267,62.4372],[-114.436,62.44196],[-114.42917,62.44567],[-114.4325,62.45044],[-114.42568,62.45415],[-114.41553,62.45309],[-114.4087,62.4568],[-114.39855,62.45574],[-114.39523,62.45097],[-114.38508,62.4499],[-114.37825,62.45361],[-114.38157,62.45838],[-114.37473,62.46209],[-114.37805,62.46686],[-114.37122,62.47056],[-114.36106,62.4695],[-114.35422,62.47321],[-114.34406,62.47214],[-114.34075,62.46737],[-114.34759,62.46366],[-114.35774,62.46473],[-114.36458,62.46102],[-114.36126,62.45625],[-114.35111,62.45519],[-114.3478,62.45042],[-114.35463,62.44671],[-114.35132,62.44194],[-114.35815,62.43824],[-114.36829,62.4393],[-114.37161,62.44407],[-114.38176,62.44513],[-114.38859,62.44143],[-114.39873,62.44249],[-114.40556,62.43878],[-114.40224,62.43401],[-114.40906,62.43031],[-114.4192,62.43137]]]]}},{"type":"Feature","properties":{"cluster_id":12,"hex_count":9,"total_addressable_demand":8466.914032340466,"mean_opportunity_score":70.1120586854895,"dominant_class":"proven_market_no_pv","province":"QC","anchor_city":"Repentigny"},"geometry":{"type":"MultiPolygon","coordinates":[[[[-73.42471,45.6596],[-73.43182,45.65854],[-73.43669,45.66216],[-73.4438,45.6611],[-73.44867,45.66472],[-73.44642,45.66941],[-73.43931,45.67047],[-73.43706,45.67516],[-73.44193,45.67879],[-73.43969,45.68348],[-73.44456,45.6871],[-73.44231,45.69179],[-73.43519,45.69286],[-73.43032,45.68923],[-73.42321,45.69029],[-73.42096,45.69498],[-73.41384,45.69605],[-73.40897,45.69242],[-73.41122,45.68773],[-73.40635,45.68411],[-73.4086,45.67942],[-73.41572,45.67836],[-73.41797,45.67367],[-73.42508,45.6726],[-73.42733,45.66791],[-73.42246,45.66429],[-73.42471,45.6596]]]]}},{"type":"Feature","properties":{"cluster_id":13,"hex_count":12,"total_addressable_demand":7970.584076511114,"mean_opportunity_score":87.00389823070988,"dominant_class":"true_whitespace","province":"QC","anchor_city":"Atholville"},"geometry":{"type":"MultiPolygon","coordinates":[[[[-66.39066,50.20969],[-66.39863,50.20909],[-66.40333,50.21314],[-66.40005,50.21779],[-66.40475,50.22184],[-66.40147,50.2265],[-66.3935,50.2271],[-66.39022,50.23175],[-66.39492,50.23581],[-66.39164,50.24046],[-66.38367,50.24106],[-66.37897,50.23701],[-66.38225,50.23236],[-66.37755,50.22831],[-66.36958,50.22891],[-66.36489,50.22486],[-66.35691,50.22546],[-66.35363,50.23012],[-66.34566,50.23072],[-66.34097,50.22667],[-66.34425,50.22201],[-66.35222,50.22141],[-66.3555,50.21676],[-66.36348,50.21616],[-66.36675,50.2115],[-66.36206,50.20745],[-66.36534,50.2028],[-66.37331,50.2022],[-66.37659,50.19754],[-66.38456,50.19694],[-66.38925,50.20099],[-66.38597,50.20564],[-66.39066,50.20969]]]]}},{"type":"Feature","properties":{"cluster_id":14,"hex_count":12,"total_addressable_demand":7877.303710207566,"mean_opportunity_score":72.89403661666002,"dominant_class":"true_whitespace","province":"QC","anchor_city":"Windsor"},"geometry":{"type":"MultiPolygon","coordinates":[[[[-72.1612,45.25688],[-72.15884,45.26152],[-72.16356,45.26518],[-72.1612,45.26983],[-72.16592,45.27349],[-72.16356,45.27813],[-72.15649,45.27911],[-72.15413,45.28376],[-72.14706,45.28474],[-72.14235,45.28108],[-72.13527,45.28206],[-72.13292,45.2867],[-72.12584,45.28768],[-72.12113,45.28402],[-72.12349,45.27938],[-72.13056,45.2784],[-72.13292,45.27375],[-72.12821,45.27009],[-72.13057,45.26545],[-72.12585,45.26179],[-72.11878,45.26277],[-72.11407,45.25911],[-72.11643,45.25446],[-72.1235,45.25348],[-72.12586,45.24884],[-72.13293,45.24786],[-72.13764,45.25152],[-72.13528,45.25617],[-72.13999,45.25983],[-72.14706,45.25884],[-72.14942,45.2542],[-72.15649,45.25322],[-72.1612,45.25688]]]]}},{"type":"Feature","properties":{"cluster_id":15,"hex_count":12,"total_addressable_demand":7410.770953342081,"mean_opportunity_score":76.88301671129916,"dominant_class":"proven_market_no_pv","province":"QC","anchor_city":"La Pocati\u00e8re"},"geometry":{"type":"MultiPolygon","coordinates":[[[[-69.54346,47.81087],[-69.5482,47.81473],[-69.54543,47.8194],[-69.55018,47.82326],[-69.5577,47.82243],[-69.56246,47.82629],[-69.55968,47.83096],[-69.55216,47.83179],[-69.54938,47.83646],[-69.54186,47.83728],[-69.53908,47.84196],[-69.54384,47.84582],[-69.54106,47.85049],[-69.54581,47.85435],[-69.54304,47.85902],[-69.53551,47.85985],[-69.53076,47.85599],[-69.53353,47.85131],[-69.52878,47.84746],[-69.53156,47.84278],[-69.52681,47.83893],[-69.52958,47.83425],[-69.52484,47.8304],[-69.51731,47.83122],[-69.51453,47.83589],[-69.50701,47.83671],[-69.50226,47.83286],[-69.50504,47.82818],[-69.50029,47.82433],[-69.50307,47.81965],[-69.51059,47.81883],[-69.51534,47.82269],[-69.52286,47.82187],[-69.52564,47.81719],[-69.53316,47.81637],[-69.53593,47.8117],[-69.54346,47.81087]]]]}},{"type":"Feature","properties":{"cluster_id":16,"hex_count":8,"total_addressable_demand":6966.269584707305,"mean_opportunity_score":66.79722499672008,"dominant_class":"proven_market_no_pv","province":"QC","anchor_city":"Sainte-Foy"},"geometry":{"type":"MultiPolygon","coordinates":[[[[-71.39221,46.73075],[-71.39701,46.7345],[-71.3945,46.73918],[-71.3993,46.74293],[-71.39679,46.74761],[-71.38946,46.74855],[-71.38466,46.74481],[-71.37734,46.74575],[-71.37482,46.75043],[-71.3675,46.75137],[-71.36498,46.75606],[-71.35766,46.75699],[-71.35286,46.75325],[-71.34553,46.75419],[-71.34073,46.75044],[-71.34325,46.74576],[-71.35057,46.74482],[-71.35309,46.74013],[-71.36041,46.7392],[-71.36293,46.73451],[-71.37025,46.73357],[-71.37505,46.73732],[-71.38237,46.73638],[-71.38489,46.73169],[-71.39221,46.73075]]]]}},{"type":"Feature","properties":{"cluster_id":17,"hex_count":11,"total_addressable_demand":6156.229328671769,"mean_opportunity_score":82.07486875725748,"dominant_class":"true_whitespace","province":"QC","anchor_city":"Plessisville"},"geometry":{"type":"MultiPolygon","coordinates":[[[[-71.31432,46.09289],[-71.31183,46.09754],[-71.31656,46.10127],[-71.32377,46.10033],[-71.3285,46.10406],[-71.32602,46.10872],[-71.3188,46.10965],[-71.31631,46.11431],[-71.30909,46.11524],[-71.30661,46.1199],[-71.29939,46.12083],[-71.29466,46.11711],[-71.29715,46.11245],[-71.30437,46.11152],[-71.30685,46.10686],[-71.30213,46.10313],[-71.29491,46.10407],[-71.29242,46.10872],[-71.2852,46.10965],[-71.28271,46.11431],[-71.2755,46.11524],[-71.27077,46.11152],[-71.27326,46.10686],[-71.26854,46.10313],[-71.27103,46.09848],[-71.27824,46.09755],[-71.28297,46.10127],[-71.29018,46.10034],[-71.29267,46.09568],[-71.28795,46.09196],[-71.29044,46.0873],[-71.28571,46.08358],[-71.2882,46.07892],[-71.29541,46.07799],[-71.30014,46.08171],[-71.29765,46.08637],[-71.30238,46.09009],[-71.30959,46.08916],[-71.31432,46.09289]]]]}},{"type":"Feature","properties":{"cluster_id":18,"hex_count":13,"total_addressable_demand":6022.46070297533,"mean_opportunity_score":71.06038097926358,"dominant_class":"true_whitespace","province":"NL","anchor_city":"Paradise"},"geometry":{"type":"MultiPolygon","coordinates":[[[[-53.06396,47.4775],[-53.05972,47.48154],[-53.05255,47.48129],[-53.04832,47.48533],[-53.04114,47.48509],[-53.0369,47.48913],[-53.03983,47.49341],[-53.03559,47.49745],[-53.02842,47.49721],[-53.02418,47.50124],[-53.01701,47.501],[-53.01276,47.50504],[-53.00559,47.50479],[-53.00134,47.50883],[-52.99417,47.50858],[-52.98993,47.51262],[-52.98275,47.51237],[-52.97983,47.50809],[-52.97266,47.50784],[-52.96841,47.51188],[-52.96124,47.51163],[-52.95832,47.50735],[-52.96256,47.50331],[-52.96973,47.50356],[-52.97398,47.49952],[-52.98115,47.49977],[-52.9854,47.49574],[-52.99257,47.49598],[-52.99681,47.49195],[-53.00398,47.49219],[-53.00691,47.49647],[-53.01408,47.49672],[-53.01832,47.49268],[-53.01539,47.4884],[-53.01964,47.48436],[-53.02681,47.4846],[-53.03105,47.48057],[-53.03822,47.48081],[-53.04245,47.47677],[-53.04962,47.47701],[-53.05386,47.47298],[-53.06103,47.47322],[-53.06396,47.4775]]]]}},{"type":"Feature","properties":{"cluster_id":19,"hex_count":7,"total_addressable_demand":5979.00481239574,"mean_opportunity_score":64.97747756690104,"dominant_class":"proven_market_no_pv","province":"QC","anchor_city":"Terrebonne"},"geometry":{"type":"MultiPolygon","coordinates":[[[[-73.70196,45.75721],[-73.70908,45.75613],[-73.71398,45.75974],[-73.71176,45.76444],[-73.71666,45.76806],[-73.72379,45.76697],[-73.72869,45.77059],[-73.72647,45.77529],[-73.73138,45.7789],[-73.72915,45.7836],[-73.72203,45.78469],[-73.71712,45.78107],[-73.71,45.78215],[-73.70509,45.77854],[-73.69797,45.77962],[-73.69307,45.776],[-73.68594,45.77708],[-73.68104,45.77346],[-73.68326,45.76877],[-73.69039,45.76769],[-73.69529,45.7713],[-73.70242,45.77022],[-73.70464,45.76552],[-73.69974,45.76191],[-73.70196,45.75721]]]]}},{"type":"Feature","properties":{"cluster_id":20,"hex_count":9,"total_addressable_demand":4975.467962699343,"mean_opportunity_score":61.86465508001004,"dominant_class":"proven_market_no_pv","province":"QC","anchor_city":"Repentigny"},"geometry":{"type":"MultiPolygon","coordinates":[[[[-73.43897,45.82297],[-73.44386,45.8266],[-73.44161,45.8313],[-73.43447,45.83236],[-73.43221,45.83706],[-73.4371,45.84069],[-73.43484,45.84539],[-73.43973,45.84902],[-73.43748,45.85371],[-73.44237,45.85734],[-73.44011,45.86204],[-73.43297,45.86311],[-73.42808,45.85948],[-73.42093,45.86054],[-73.41605,45.85691],[-73.4183,45.85221],[-73.41342,45.84858],[-73.40628,45.84965],[-73.40139,45.84601],[-73.40365,45.84132],[-73.41079,45.84026],[-73.41567,45.84389],[-73.42282,45.84282],[-73.42507,45.83813],[-73.42019,45.8345],[-73.41305,45.83556],[-73.40816,45.83193],[-73.41042,45.82723],[-73.41756,45.82617],[-73.42244,45.8298],[-73.42958,45.82873],[-73.43184,45.82404],[-73.43897,45.82297]]]]}},{"type":"Feature","properties":{"cluster_id":21,"hex_count":8,"total_addressable_demand":4887.338627494675,"mean_opportunity_score":76.37560979670786,"dominant_class":"true_whitespace","province":"ON","anchor_city":"Ancaster"},"geometry":{"type":"MultiPolygon","coordinates":[[[[-79.95575,43.05301],[-79.96083,43.05626],[-79.95936,43.06093],[-79.96444,43.06419],[-79.97099,43.06276],[-79.97607,43.06601],[-79.97461,43.07069],[-79.96806,43.07211],[-79.9666,43.07678],[-79.96005,43.07821],[-79.95859,43.08288],[-79.95204,43.0843],[-79.94696,43.08105],[-79.94842,43.07638],[-79.94334,43.07312],[-79.94481,43.06845],[-79.93973,43.0652],[-79.93318,43.06662],[-79.9281,43.06337],[-79.92957,43.05869],[-79.93612,43.05727],[-79.9412,43.06053],[-79.94774,43.05911],[-79.94921,43.05443],[-79.95575,43.05301]]]]}},{"type":"Feature","properties":{"cluster_id":22,"hex_count":6,"total_addressable_demand":4854.36049970343,"mean_opportunity_score":62.22692241968352,"dominant_class":"proven_market_no_pv","province":"QC","anchor_city":"Saint-Basile-le-Grand"},"geometry":{"type":"MultiPolygon","coordinates":[[[[-73.31492,45.55856],[-73.32202,45.5575],[-73.32686,45.56113],[-73.32461,45.56581],[-73.32946,45.56943],[-73.33656,45.56838],[-73.34141,45.572],[-73.33916,45.57668],[-73.34401,45.58031],[-73.35111,45.57925],[-73.35596,45.58287],[-73.35371,45.58756],[-73.34661,45.58862],[-73.34175,45.58499],[-73.33465,45.58605],[-73.3298,45.58242],[-73.3227,45.58348],[-73.31785,45.57986],[-73.32011,45.57517],[-73.31526,45.57155],[-73.31751,45.56687],[-73.31267,45.56324],[-73.31492,45.55856]]]]}},{"type":"Feature","properties":{"cluster_id":23,"hex_count":7,"total_addressable_demand":4808.32056568757,"mean_opportunity_score":60.0608557133577,"dominant_class":"proven_market_no_pv","province":"QC","anchor_city":"Kirkland"},"geometry":{"type":"MultiPolygon","coordinates":[[[[-73.8796,45.47735],[-73.88668,45.47626],[-73.89156,45.47986],[-73.88937,45.48455],[-73.89426,45.48815],[-73.89207,45.49284],[-73.88499,45.49393],[-73.8828,45.49862],[-73.88769,45.50222],[-73.8855,45.50691],[-73.87842,45.508],[-73.87623,45.5127],[-73.86915,45.51379],[-73.86426,45.51019],[-73.85718,45.51128],[-73.85229,45.50767],[-73.85449,45.50298],[-73.86157,45.50189],[-73.86376,45.4972],[-73.87084,45.49611],[-73.87303,45.49142],[-73.88011,45.49033],[-73.8823,45.48564],[-73.87741,45.48204],[-73.8796,45.47735]]]]}},{"type":"Feature","properties":{"cluster_id":24,"hex_count":8,"total_addressable_demand":4512.465475050521,"mean_opportunity_score":84.45065352366595,"dominant_class":"true_whitespace","province":"QC","anchor_city":"Atholville"},"geometry":{"type":"MultiPolygon","coordinates":[[[[-67.53974,48.82355],[-67.5444,48.82751],[-67.54135,48.83216],[-67.54601,48.83613],[-67.55372,48.83544],[-67.55838,48.8394],[-67.55533,48.84405],[-67.54762,48.84474],[-67.54457,48.84939],[-67.53685,48.85008],[-67.5338,48.85473],[-67.52608,48.85542],[-67.52142,48.85145],[-67.51371,48.85214],[-67.50905,48.84818],[-67.5121,48.84353],[-67.50744,48.83956],[-67.5105,48.83491],[-67.51821,48.83422],[-67.52287,48.83819],[-67.53058,48.8375],[-67.53364,48.83285],[-67.52898,48.82889],[-67.53203,48.82424],[-67.53974,48.82355]]]]}},{"type":"Feature","properties":{"cluster_id":25,"hex_count":8,"total_addressable_demand":4481.240289826357,"mean_opportunity_score":76.03899657954364,"dominant_class":"true_whitespace","province":"QC","anchor_city":"Bromont"},"geometry":{"type":"MultiPolygon","coordinates":[[[[-72.75895,45.18939],[-72.75666,45.19404],[-72.74961,45.19506],[-72.74732,45.19971],[-72.75208,45.20335],[-72.75913,45.20233],[-72.76142,45.19767],[-72.76847,45.19665],[-72.77323,45.20029],[-72.77094,45.20494],[-72.76389,45.20596],[-72.7616,45.21062],[-72.75455,45.21164],[-72.75226,45.21629],[-72.7452,45.21731],[-72.74044,45.21367],[-72.73339,45.21469],[-72.7311,45.21935],[-72.72404,45.22036],[-72.71928,45.21673],[-72.72158,45.21207],[-72.72863,45.21106],[-72.73093,45.2064],[-72.73798,45.20538],[-72.74027,45.20073],[-72.73551,45.1971],[-72.73781,45.19244],[-72.74486,45.19142],[-72.74715,45.18677],[-72.7542,45.18575],[-72.75895,45.18939]]]]}},{"type":"Feature","properties":{"cluster_id":26,"hex_count":7,"total_addressable_demand":4405.662716681946,"mean_opportunity_score":86.56363894893616,"dominant_class":"true_whitespace","province":"MB","anchor_city":"Dauphin"},"geometry":{"type":"MultiPolygon","coordinates":[[[[-97.88571,55.7355],[-97.88625,55.74062],[-97.89432,55.74299],[-97.89486,55.74811],[-97.88735,55.75085],[-97.88789,55.75597],[-97.88037,55.75871],[-97.87231,55.75633],[-97.87176,55.75122],[-97.8637,55.74884],[-97.85618,55.75158],[-97.84812,55.7492],[-97.84758,55.74409],[-97.83952,55.74171],[-97.83898,55.73659],[-97.8465,55.73385],[-97.85456,55.73623],[-97.86207,55.73349],[-97.87013,55.73587],[-97.87765,55.73313],[-97.88571,55.7355]]]]}},{"type":"Feature","properties":{"cluster_id":27,"hex_count":8,"total_addressable_demand":4375.056996243806,"mean_opportunity_score":85.11862861902965,"dominant_class":"true_whitespace","province":"QC","anchor_city":"Edmundston"},"geometry":{"type":"MultiPolygon","coordinates":[[[[-68.27302,49.18623],[-68.2778,49.19018],[-68.28558,49.18944],[-68.29035,49.19339],[-68.29813,49.19265],[-68.30113,49.18797],[-68.3089,49.18723],[-68.31368,49.19117],[-68.31069,49.19586],[-68.30291,49.1966],[-68.29991,49.20128],[-68.29213,49.20202],[-68.28736,49.19808],[-68.27958,49.19881],[-68.27658,49.2035],[-68.2688,49.20423],[-68.2658,49.20892],[-68.25802,49.20965],[-68.25324,49.20571],[-68.25625,49.20102],[-68.25147,49.19707],[-68.24369,49.19781],[-68.23892,49.19386],[-68.24192,49.18918],[-68.2497,49.18844],[-68.25447,49.19239],[-68.26225,49.19165],[-68.26525,49.18697],[-68.27302,49.18623]]]]}},{"type":"Feature","properties":{"cluster_id":28,"hex_count":6,"total_addressable_demand":4260.8086077147345,"mean_opportunity_score":84.84695817521803,"dominant_class":"true_whitespace","province":"ON","anchor_city":"Kenora"},"geometry":{"type":"MultiPolygon","coordinates":[[[[-92.84063,49.76392],[-92.84735,49.76662],[-92.84721,49.77162],[-92.84035,49.77393],[-92.84021,49.77893],[-92.84693,49.78163],[-92.8468,49.78663],[-92.85352,49.78932],[-92.85338,49.79433],[-92.84652,49.79663],[-92.83979,49.79394],[-92.83993,49.78893],[-92.83321,49.78624],[-92.82635,49.78854],[-92.81963,49.78585],[-92.81977,49.78084],[-92.81305,49.77814],[-92.81319,49.77314],[-92.82005,49.77084],[-92.82677,49.77353],[-92.83363,49.77123],[-92.83377,49.76623],[-92.84063,49.76392]]]]}},{"type":"Feature","properties":{"cluster_id":29,"hex_count":8,"total_addressable_demand":4232.9389210321315,"mean_opportunity_score":68.25424450187042,"dominant_class":"true_whitespace","province":"QC","anchor_city":"Saint-Jean-sur-Richelieu"},"geometry":{"type":"MultiPolygon","coordinates":[[[[-73.23405,45.26249],[-73.2411,45.26144],[-73.24591,45.26506],[-73.25296,45.26401],[-73.25777,45.26763],[-73.26482,45.26658],[-73.26964,45.27019],[-73.27669,45.26914],[-73.2815,45.27276],[-73.27926,45.27743],[-73.2722,45.27848],[-73.26996,45.28315],[-73.26291,45.2842],[-73.26066,45.28887],[-73.26547,45.29248],[-73.26323,45.29715],[-73.25617,45.2982],[-73.25136,45.29459],[-73.2536,45.28992],[-73.24879,45.2863],[-73.25104,45.28163],[-73.24623,45.27801],[-73.24847,45.27335],[-73.24367,45.26973],[-73.23661,45.27078],[-73.23181,45.26716],[-73.23405,45.26249]]]]}},{"type":"Feature","properties":{"cluster_id":30,"hex_count":8,"total_addressable_demand":4036.7906303938707,"mean_opportunity_score":82.27628716899073,"dominant_class":"true_whitespace","province":"QC","anchor_city":"Roberval"},"geometry":{"type":"MultiPolygon","coordinates":[[[[-72.22126,48.85687],[-72.22639,48.86064],[-72.22383,48.86543],[-72.22896,48.8692],[-72.23664,48.8682],[-72.24177,48.87198],[-72.23922,48.87676],[-72.24435,48.88054],[-72.25203,48.87954],[-72.25716,48.88331],[-72.25461,48.8881],[-72.24693,48.8891],[-72.2418,48.88532],[-72.23412,48.88633],[-72.22899,48.88255],[-72.22131,48.88355],[-72.21875,48.88833],[-72.21107,48.88933],[-72.20852,48.89412],[-72.20083,48.89512],[-72.19571,48.89134],[-72.19826,48.88656],[-72.20594,48.88555],[-72.2085,48.88077],[-72.21618,48.87977],[-72.21873,48.87499],[-72.2136,48.87121],[-72.21616,48.86643],[-72.21103,48.86265],[-72.21358,48.85787],[-72.22126,48.85687]]]]}},{"type":"Feature","properties":{"cluster_id":31,"hex_count":3,"total_addressable_demand":3867.751378313794,"mean_opportunity_score":62.96277887860399,"dominant_class":"proven_market_no_pv","province":"QC","anchor_city":"Montr\u00e9al"},"geometry":{"type":"MultiPolygon","coordinates":[[[[-73.68318,45.55967],[-73.68097,45.56436],[-73.67388,45.56544],[-73.669,45.56183],[-73.67122,45.55714],[-73.67831,45.55606],[-73.68052,45.55137],[-73.68761,45.55029],[-73.69249,45.5539],[-73.69958,45.55282],[-73.70446,45.55643],[-73.70225,45.56112],[-73.69515,45.5622],[-73.69028,45.55859],[-73.68318,45.55967]]]]}},{"type":"Feature","properties":{"cluster_id":32,"hex_count":7,"total_addressable_demand":3768.61582963184,"mean_opportunity_score":64.99683914340386,"dominant_class":"proven_market_no_pv","province":"QC","anchor_city":"Drummondville"},"geometry":{"type":"MultiPolygon","coordinates":[[[[-72.45026,45.8356],[-72.45742,45.8346],[-72.46222,45.83827],[-72.45986,45.84294],[-72.46467,45.84661],[-72.46231,45.85129],[-72.46711,45.85496],[-72.47427,45.85395],[-72.47908,45.85762],[-72.47672,45.8623],[-72.48153,45.86597],[-72.47918,45.87064],[-72.47201,45.87165],[-72.46721,45.86798],[-72.46005,45.86898],[-72.45524,45.86531],[-72.44808,45.86632],[-72.44328,45.86264],[-72.44564,45.85797],[-72.4528,45.85697],[-72.45515,45.85229],[-72.45035,45.84862],[-72.45271,45.84395],[-72.4479,45.84028],[-72.45026,45.8356]]]]}},{"type":"Feature","properties":{"cluster_id":33,"hex_count":5,"total_addressable_demand":3760.1664422424233,"mean_opportunity_score":64.86717584661113,"dominant_class":"proven_market_no_pv","province":"QC","anchor_city":"Saint-Eustache"},"geometry":{"type":"MultiPolygon","coordinates":[[[[-73.98285,45.62257],[-73.98995,45.62147],[-73.99486,45.62507],[-74.00195,45.62397],[-74.00686,45.62757],[-74.00468,45.63227],[-74.00959,45.63587],[-74.00741,45.64057],[-74.00031,45.64167],[-73.9954,45.63807],[-73.9883,45.63917],[-73.98339,45.63557],[-73.97629,45.63667],[-73.97138,45.63306],[-73.97357,45.62837],[-73.98066,45.62727],[-73.98285,45.62257]]]]}},{"type":"Feature","properties":{"cluster_id":34,"hex_count":6,"total_addressable_demand":3673.85547159365,"mean_opportunity_score":66.49648096446508,"dominant_class":"true_whitespace","province":"QC","anchor_city":"Chicoutimi"},"geometry":{"type":"MultiPolygon","coordinates":[[[[-71.03533,48.43435],[-71.04295,48.43343],[-71.04791,48.43724],[-71.05553,48.43632],[-71.06049,48.44013],[-71.05784,48.44487],[-71.06281,48.44869],[-71.07043,48.44776],[-71.07539,48.45158],[-71.07274,48.45632],[-71.06512,48.45724],[-71.06247,48.46198],[-71.05485,48.4629],[-71.04988,48.45909],[-71.05253,48.45435],[-71.04757,48.45053],[-71.03995,48.45146],[-71.03498,48.44764],[-71.03764,48.4429],[-71.03268,48.43909],[-71.03533,48.43435]]]]}},{"type":"Feature","properties":{"cluster_id":35,"hex_count":5,"total_addressable_demand":3615.0746332399776,"mean_opportunity_score":62.62107867912003,"dominant_class":"proven_market_no_pv","province":"QC","anchor_city":"Mercier"},"geometry":{"type":"MultiPolygon","coordinates":[[[[-73.74269,45.36359],[-73.74975,45.36251],[-73.75461,45.36611],[-73.76167,45.36502],[-73.76653,45.36862],[-73.76433,45.37331],[-73.75727,45.37439],[-73.75507,45.37907],[-73.74801,45.38016],[-73.74315,45.37655],[-73.73609,45.37764],[-73.73389,45.38232],[-73.72683,45.3834],[-73.72196,45.3798],[-73.72417,45.37511],[-73.73123,45.37403],[-73.73343,45.36935],[-73.74049,45.36827],[-73.74269,45.36359]]]]}},{"type":"Feature","properties":{"cluster_id":36,"hex_count":6,"total_addressable_demand":3580.807774105112,"mean_opportunity_score":84.54693122445416,"dominant_class":"true_whitespace","province":"QC","anchor_city":"Qu\u00e9bec"},"geometry":{"type":"MultiPolygon","coordinates":[[[[-70.57844,46.96727],[-70.5832,46.97105],[-70.58058,46.97573],[-70.57321,46.97662],[-70.5706,46.98129],[-70.56323,46.98218],[-70.56061,46.98685],[-70.55324,46.98774],[-70.55063,46.99241],[-70.54326,46.9933],[-70.5385,46.98951],[-70.54112,46.98484],[-70.53637,46.98105],[-70.53899,46.97638],[-70.54635,46.97549],[-70.54897,46.97082],[-70.55634,46.96993],[-70.56109,46.97372],[-70.56846,46.97283],[-70.57107,46.96816],[-70.57844,46.96727]]]]}},{"type":"Feature","properties":{"cluster_id":37,"hex_count":5,"total_addressable_demand":3543.7155086747875,"mean_opportunity_score":69.27859334146424,"dominant_class":"proven_market_no_pv","province":"QC","anchor_city":"Chicoutimi"},"geometry":{"type":"MultiPolygon","coordinates":[[[[-70.87434,48.31696],[-70.88193,48.31605],[-70.88687,48.31986],[-70.8842,48.32459],[-70.88914,48.32841],[-70.88648,48.33314],[-70.89141,48.33696],[-70.89901,48.33605],[-70.90395,48.33986],[-70.90129,48.34459],[-70.89369,48.34551],[-70.89102,48.35024],[-70.88342,48.35115],[-70.87848,48.34733],[-70.88115,48.3426],[-70.87621,48.33878],[-70.87888,48.33405],[-70.87394,48.33023],[-70.87661,48.3255],[-70.87167,48.32169],[-70.87434,48.31696]]]]}},{"type":"Feature","properties":{"cluster_id":38,"hex_count":7,"total_addressable_demand":3532.733345798278,"mean_opportunity_score":68.1050959789757,"dominant_class":"proven_market_no_pv","province":"AB","anchor_city":"Didsbury"},"geometry":{"type":"MultiPolygon","coordinates":[[[[-114.1218,51.77801],[-114.12919,51.7793],[-114.13157,51.7839],[-114.13895,51.78519],[-114.14134,51.78979],[-114.13635,51.79311],[-114.12896,51.79182],[-114.12396,51.79514],[-114.12635,51.79975],[-114.12135,51.80307],[-114.11397,51.80178],[-114.10896,51.8051],[-114.10158,51.80381],[-114.09919,51.7992],[-114.09181,51.79792],[-114.08942,51.79331],[-114.09443,51.78999],[-114.10181,51.79128],[-114.10681,51.78796],[-114.11419,51.78925],[-114.11919,51.78593],[-114.11681,51.78133],[-114.1218,51.77801]]]]}},{"type":"Feature","properties":{"cluster_id":39,"hex_count":4,"total_addressable_demand":3509.5075205571916,"mean_opportunity_score":66.88978663415733,"dominant_class":"proven_market_no_pv","province":"BC","anchor_city":"Victoria"},"geometry":{"type":"MultiPolygon","coordinates":[[[[-123.50189,48.46041],[-123.50683,48.45709],[-123.51344,48.45785],[-123.51511,48.46193],[-123.52172,48.46269],[-123.52338,48.46677],[-123.52999,48.46753],[-123.53166,48.47161],[-123.53827,48.47237],[-123.53994,48.47645],[-123.535,48.47977],[-123.52839,48.47901],[-123.52672,48.47493],[-123.52011,48.47417],[-123.51844,48.47009],[-123.51183,48.46933],[-123.51016,48.46525],[-123.50355,48.46449],[-123.50189,48.46041]]]]}},{"type":"Feature","properties":{"cluster_id":40,"hex_count":4,"total_addressable_demand":3379.757612579231,"mean_opportunity_score":82.10296847921472,"dominant_class":"true_whitespace","province":"BC","anchor_city":"Chilliwack"},"geometry":{"type":"MultiPolygon","coordinates":[[[[-121.74308,49.23096],[-121.74819,49.22773],[-121.75492,49.22857],[-121.75653,49.23264],[-121.76326,49.23348],[-121.76487,49.23756],[-121.77159,49.2384],[-121.7767,49.23516],[-121.78343,49.236],[-121.78504,49.24008],[-121.77993,49.24331],[-121.77321,49.24247],[-121.76809,49.2457],[-121.76137,49.24486],[-121.75976,49.24079],[-121.75303,49.23995],[-121.75142,49.23588],[-121.74469,49.23503],[-121.74308,49.23096]]]]}},{"type":"Feature","properties":{"cluster_id":41,"hex_count":5,"total_addressable_demand":3220.781770151969,"mean_opportunity_score":84.6237014731503,"dominant_class":"true_whitespace","province":"BC","anchor_city":"Cranbrook"},"geometry":{"type":"MultiPolygon","coordinates":[[[[-115.05574,49.48707],[-115.06034,49.48384],[-115.06728,49.48509],[-115.06962,49.48958],[-115.07656,49.49084],[-115.0789,49.49533],[-115.08584,49.49659],[-115.08818,49.50108],[-115.08358,49.50431],[-115.07664,49.50306],[-115.0743,49.49857],[-115.06736,49.49731],[-115.06276,49.50055],[-115.0651,49.50504],[-115.0605,49.50827],[-115.05356,49.50702],[-115.05122,49.50253],[-115.05582,49.49929],[-115.05348,49.4948],[-115.05808,49.49156],[-115.05574,49.48707]]]]}},{"type":"Feature","properties":{"cluster_id":42,"hex_count":5,"total_addressable_demand":3220.2211997968634,"mean_opportunity_score":71.66971916582656,"dominant_class":"true_whitespace","province":"AB","anchor_city":"Lethbridge"},"geometry":{"type":"MultiPolygon","coordinates":[[[[-112.6286,49.71035],[-112.63562,49.71176],[-112.63773,49.71635],[-112.63282,49.71952],[-112.63493,49.72411],[-112.63002,49.72728],[-112.63213,49.73187],[-112.62722,49.73505],[-112.6202,49.73364],[-112.61809,49.72905],[-112.61107,49.72763],[-112.60616,49.73081],[-112.59914,49.7294],[-112.59703,49.72481],[-112.60194,49.72163],[-112.60896,49.72305],[-112.61387,49.71987],[-112.62089,49.72128],[-112.6258,49.71811],[-112.62369,49.71352],[-112.6286,49.71035]]]]}},{"type":"Feature","properties":{"cluster_id":43,"hex_count":4,"total_addressable_demand":3138.3286084205674,"mean_opportunity_score":67.4543845556978,"dominant_class":"proven_market_no_pv","province":"QC","anchor_city":"Val-B\u00e9lair"},"geometry":{"type":"MultiPolygon","coordinates":[[[[-71.45304,46.73164],[-71.46036,46.7307],[-71.46517,46.73444],[-71.47249,46.73349],[-71.4773,46.73723],[-71.47479,46.74192],[-71.46748,46.74287],[-71.46497,46.74755],[-71.45765,46.7485],[-71.45284,46.74476],[-71.44552,46.7457],[-71.44071,46.74196],[-71.44322,46.73727],[-71.45054,46.73633],[-71.45304,46.73164]]]]}},{"type":"Feature","properties":{"cluster_id":44,"hex_count":3,"total_addressable_demand":3126.876928448198,"mean_opportunity_score":85.3256566350506,"dominant_class":"true_whitespace","province":"MB","anchor_city":"Winnipeg"},"geometry":{"type":"MultiPolygon","coordinates":[[[[-97.04464,49.59304],[-97.05149,49.59548],[-97.05186,49.60043],[-97.04537,49.60296],[-97.04573,49.60791],[-97.03925,49.61044],[-97.03239,49.608],[-97.03203,49.60305],[-97.02518,49.60062],[-97.02481,49.59566],[-97.0313,49.59314],[-97.03815,49.59557],[-97.04464,49.59304]]]]}},{"type":"Feature","properties":{"cluster_id":45,"hex_count":4,"total_addressable_demand":3115.5308633136037,"mean_opportunity_score":60.424883686879184,"dominant_class":"proven_market_no_pv","province":"AB","anchor_city":"Calgary"},"geometry":{"type":"MultiPolygon","coordinates":[[[[-114.05587,51.11876],[-114.06079,51.11547],[-114.06804,51.11677],[-114.07038,51.12136],[-114.07764,51.12266],[-114.07998,51.12724],[-114.07506,51.13053],[-114.0774,51.13511],[-114.07248,51.1384],[-114.06523,51.1371],[-114.06289,51.13252],[-114.05563,51.13122],[-114.05329,51.12663],[-114.05821,51.12334],[-114.05587,51.11876]]]]}},{"type":"Feature","properties":{"cluster_id":46,"hex_count":4,"total_addressable_demand":2992.1661280772983,"mean_opportunity_score":87.0336775477839,"dominant_class":"true_whitespace","province":"BC","anchor_city":"Cranbrook"},"geometry":{"type":"MultiPolygon","coordinates":[[[[-116.52689,49.09235],[-116.52934,49.09678],[-116.52496,49.10003],[-116.51813,49.09886],[-116.51374,49.10211],[-116.5162,49.10654],[-116.52304,49.1077],[-116.52549,49.11213],[-116.52111,49.11538],[-116.51427,49.11421],[-116.51181,49.10979],[-116.50497,49.10862],[-116.50252,49.1042],[-116.5069,49.10094],[-116.50445,49.09652],[-116.50883,49.09327],[-116.51567,49.09444],[-116.52005,49.09119],[-116.52689,49.09235]]]]}},{"type":"Feature","properties":{"cluster_id":47,"hex_count":5,"total_addressable_demand":2978.023959254121,"mean_opportunity_score":62.706186828289844,"dominant_class":"proven_market_no_pv","province":"AB","anchor_city":"Calgary"},"geometry":{"type":"MultiPolygon","coordinates":[[[[-113.84707,51.01854],[-113.84938,51.02313],[-113.84445,51.02641],[-113.84676,51.031],[-113.84182,51.03427],[-113.84414,51.03886],[-113.8392,51.04214],[-113.83196,51.04082],[-113.82965,51.03623],[-113.8224,51.03491],[-113.8201,51.03032],[-113.82503,51.02705],[-113.82272,51.02246],[-113.82766,51.01918],[-113.8349,51.0205],[-113.83983,51.01722],[-113.84707,51.01854]]]]}},{"type":"Feature","properties":{"cluster_id":48,"hex_count":5,"total_addressable_demand":2935.890503917072,"mean_opportunity_score":67.98432317899082,"dominant_class":"true_whitespace","province":"QC","anchor_city":"St-Lambert-de-Lauzon"},"geometry":{"type":"MultiPolygon","coordinates":[[[[-70.99609,46.43291],[-70.99863,46.42824],[-71.0059,46.42733],[-71.01063,46.43108],[-71.01791,46.43016],[-71.02264,46.43391],[-71.02011,46.43857],[-71.02485,46.44232],[-71.02231,46.44698],[-71.02705,46.45073],[-71.02451,46.4554],[-71.01724,46.45631],[-71.0125,46.45256],[-71.01503,46.4479],[-71.0103,46.44415],[-71.00302,46.44507],[-70.99829,46.44132],[-71.00082,46.43665],[-70.99609,46.43291]]]]}},{"type":"Feature","properties":{"cluster_id":49,"hex_count":6,"total_addressable_demand":2927.2443059631732,"mean_opportunity_score":84.04419901449693,"dominant_class":"true_whitespace","province":"QC","anchor_city":"Edmundston"},"geometry":{"type":"MultiPolygon","coordinates":[[[[-68.15813,49.20586],[-68.16115,49.20117],[-68.16892,49.20045],[-68.17369,49.2044],[-68.18147,49.20367],[-68.18624,49.20762],[-68.19402,49.20689],[-68.19879,49.21084],[-68.19578,49.21552],[-68.188,49.21625],[-68.18323,49.2123],[-68.17545,49.21303],[-68.17243,49.21771],[-68.16465,49.21844],[-68.16164,49.22312],[-68.15386,49.22385],[-68.14909,49.2199],[-68.14131,49.22063],[-68.13654,49.21667],[-68.13956,49.21199],[-68.14734,49.21127],[-68.15211,49.21522],[-68.15989,49.21449],[-68.1629,49.20981],[-68.15813,49.20586]]]]}},{"type":"Feature","properties":{"cluster_id":50,"hex_count":5,"total_addressable_demand":2883.5748168362375,"mean_opportunity_score":75.81611193297006,"dominant_class":"proven_market_no_pv","province":"NL","anchor_city":"Atholville"},"geometry":{"type":"MultiPolygon","coordinates":[[[[-66.92068,52.92588],[-66.92577,52.92999],[-66.92232,52.93472],[-66.92741,52.93883],[-66.92396,52.94357],[-66.92905,52.94767],[-66.9256,52.95241],[-66.91707,52.95304],[-66.91198,52.94893],[-66.90345,52.94956],[-66.89837,52.94545],[-66.90182,52.94072],[-66.89673,52.93661],[-66.90018,52.93188],[-66.90871,52.93125],[-66.91216,52.92651],[-66.92068,52.92588]]]]}},{"type":"Feature","properties":{"cluster_id":51,"hex_count":5,"total_addressable_demand":2879.495111013434,"mean_opportunity_score":58.240013444198055,"dominant_class":"proven_market_no_pv","province":"AB","anchor_city":"Edmonton"},"geometry":{"type":"MultiPolygon","coordinates":[[[[-113.43753,53.54333],[-113.43996,53.54801],[-113.43463,53.55139],[-113.43706,53.55607],[-113.43173,53.55944],[-113.42397,53.55813],[-113.41864,53.56151],[-113.41089,53.5602],[-113.40846,53.55552],[-113.40071,53.55421],[-113.39829,53.54953],[-113.40362,53.54615],[-113.41137,53.54746],[-113.4167,53.54409],[-113.42445,53.5454],[-113.42978,53.54203],[-113.43753,53.54333]]]]}},{"type":"Feature","properties":{"cluster_id":52,"hex_count":5,"total_addressable_demand":2836.526805354133,"mean_opportunity_score":68.57531685586721,"dominant_class":"true_whitespace","province":"BC","anchor_city":"Campbell River"},"geometry":{"type":"MultiPolygon","coordinates":[[[[-125.20691,49.94628],[-125.21359,49.94689],[-125.21687,49.95097],[-125.21346,49.95444],[-125.21673,49.95852],[-125.22341,49.95913],[-125.22682,49.95566],[-125.2335,49.95627],[-125.23678,49.96035],[-125.23337,49.96382],[-125.23664,49.96789],[-125.23323,49.97136],[-125.22655,49.97075],[-125.22327,49.96667],[-125.21659,49.96606],[-125.21332,49.96198],[-125.20663,49.96137],[-125.20336,49.95729],[-125.20677,49.95383],[-125.2035,49.94975],[-125.20691,49.94628]]]]}},{"type":"Feature","properties":{"cluster_id":53,"hex_count":5,"total_addressable_demand":2808.544313033256,"mean_opportunity_score":84.674263684029,"dominant_class":"true_whitespace","province":"QC","anchor_city":"Roberval"},"geometry":{"type":"MultiPolygon","coordinates":[[[[-74.35866,49.90479],[-74.36649,49.90364],[-74.37195,49.90735],[-74.37977,49.9062],[-74.38523,49.90992],[-74.38286,49.91478],[-74.37503,49.91593],[-74.37266,49.9208],[-74.36483,49.92195],[-74.36246,49.92681],[-74.35463,49.92797],[-74.34917,49.92425],[-74.35155,49.91939],[-74.34609,49.91567],[-74.34846,49.91081],[-74.35629,49.90966],[-74.35866,49.90479]]]]}},{"type":"Feature","properties":{"cluster_id":54,"hex_count":3,"total_addressable_demand":2784.5873131233084,"mean_opportunity_score":70.14404439847938,"dominant_class":"proven_market_no_pv","province":"QC","anchor_city":"Sherbrooke"},"geometry":{"type":"MultiPolygon","coordinates":[[[[-71.89436,45.36698],[-71.90145,45.36601],[-71.90615,45.36969],[-71.90377,45.37433],[-71.90847,45.378],[-71.90608,45.38264],[-71.89899,45.38361],[-71.89429,45.37994],[-71.8872,45.3809],[-71.88249,45.37723],[-71.88488,45.37259],[-71.89197,45.37162],[-71.89436,45.36698]]]]}},{"type":"Feature","properties":{"cluster_id":55,"hex_count":5,"total_addressable_demand":2753.141203745317,"mean_opportunity_score":64.91161092467989,"dominant_class":"proven_market_no_pv","province":"ON","anchor_city":"Niagara Falls"},"geometry":{"type":"MultiPolygon","coordinates":[[[[-79.06117,43.04357],[-79.06774,43.04219],[-79.07276,43.04548],[-79.0712,43.05015],[-79.06463,43.05152],[-79.06308,43.05618],[-79.0565,43.05755],[-79.05494,43.06221],[-79.04837,43.06358],[-79.04335,43.06029],[-79.03678,43.06166],[-79.03176,43.05837],[-79.03332,43.05371],[-79.03989,43.05234],[-79.04145,43.04768],[-79.04802,43.04631],[-79.05304,43.0496],[-79.05961,43.04823],[-79.06117,43.04357]]]]}},{"type":"Feature","properties":{"cluster_id":56,"hex_count":4,"total_addressable_demand":2646.7050105219014,"mean_opportunity_score":86.05754386969708,"dominant_class":"true_whitespace","province":"QC","anchor_city":"Shawinigan"},"geometry":{"type":"MultiPolygon","coordinates":[[[[-72.78838,47.42949],[-72.79339,47.4332],[-72.79099,47.43795],[-72.796,47.44166],[-72.79359,47.4464],[-72.78617,47.44744],[-72.78376,47.45218],[-72.77634,47.45321],[-72.77133,47.4495],[-72.77374,47.44476],[-72.76873,47.44105],[-72.77114,47.4363],[-72.77856,47.43527],[-72.78097,47.43052],[-72.78838,47.42949]]]]}},{"type":"Feature","properties":{"cluster_id":57,"hex_count":4,"total_addressable_demand":2637.5854678783394,"mean_opportunity_score":86.95753489420025,"dominant_class":"true_whitespace","province":"YT","anchor_city":"Prince Rupert"},"geometry":{"type":"MultiPolygon","coordinates":[[[[-135.10111,60.68937],[-135.10965,60.68904],[-135.11516,60.69282],[-135.11213,60.69694],[-135.11764,60.70072],[-135.11461,60.70484],[-135.12012,60.70863],[-135.11708,60.71275],[-135.10854,60.71308],[-135.1055,60.7172],[-135.09695,60.71754],[-135.09144,60.71375],[-135.09448,60.70963],[-135.10302,60.7093],[-135.10606,60.70518],[-135.10055,60.70139],[-135.10358,60.69727],[-135.09808,60.69349],[-135.10111,60.68937]]]]}},{"type":"Feature","properties":{"cluster_id":58,"hex_count":4,"total_addressable_demand":2627.8705663833985,"mean_opportunity_score":62.25399480133443,"dominant_class":"proven_market_no_pv","province":"ON","anchor_city":"Woodbridge"},"geometry":{"type":"MultiPolygon","coordinates":[[[[-79.65199,43.6991],[-79.65712,43.70238],[-79.6556,43.70709],[-79.66074,43.71037],[-79.65922,43.71508],[-79.66435,43.71836],[-79.66284,43.72306],[-79.65618,43.72448],[-79.65105,43.72119],[-79.65257,43.71649],[-79.64744,43.7132],[-79.64079,43.71462],[-79.63566,43.71133],[-79.63718,43.70663],[-79.64382,43.70522],[-79.64534,43.70051],[-79.65199,43.6991]]]]}},{"type":"Feature","properties":{"cluster_id":59,"hex_count":6,"total_addressable_demand":2595.301138857858,"mean_opportunity_score":63.85739359654088,"dominant_class":"proven_market_no_pv","province":"QC","anchor_city":"Qu\u00e9bec"},"geometry":{"type":"MultiPolygon","coordinates":[[[[-71.11679,46.74837],[-71.12412,46.74744],[-71.1289,46.7512],[-71.13622,46.75028],[-71.141,46.75403],[-71.13846,46.75871],[-71.14324,46.76246],[-71.1407,46.76714],[-71.14549,46.7709],[-71.14294,46.77558],[-71.13562,46.7765],[-71.13083,46.77275],[-71.1235,46.77367],[-71.11872,46.76991],[-71.12126,46.76524],[-71.11648,46.76148],[-71.11903,46.7568],[-71.11425,46.75305],[-71.11679,46.74837]]]]}},{"type":"Feature","properties":{"cluster_id":60,"hex_count":5,"total_addressable_demand":2574.3811772294807,"mean_opportunity_score":64.71857163203288,"dominant_class":"proven_market_no_pv","province":"QC","anchor_city":"Repentigny"},"geometry":{"type":"MultiPolygon","coordinates":[[[[-73.4683,45.84475],[-73.47055,45.84005],[-73.47769,45.83898],[-73.48258,45.84261],[-73.48972,45.84154],[-73.49461,45.84517],[-73.50175,45.8441],[-73.50665,45.84773],[-73.5044,45.85243],[-73.49726,45.8535],[-73.49501,45.85819],[-73.48786,45.85926],[-73.48297,45.85563],[-73.47583,45.8567],[-73.47094,45.85307],[-73.47319,45.84838],[-73.4683,45.84475]]]]}},{"type":"Feature","properties":{"cluster_id":61,"hex_count":3,"total_addressable_demand":2468.6143202766634,"mean_opportunity_score":82.22164539201209,"dominant_class":"true_whitespace","province":"MB","anchor_city":"Winkler"},"geometry":{"type":"MultiPolygon","coordinates":[[[[-97.54871,49.09901],[-97.54829,49.09408],[-97.55465,49.09154],[-97.56144,49.09394],[-97.56186,49.09887],[-97.56865,49.10126],[-97.56907,49.10619],[-97.57586,49.10859],[-97.57628,49.11352],[-97.56992,49.11605],[-97.56313,49.11366],[-97.5627,49.10873],[-97.55592,49.10633],[-97.5555,49.1014],[-97.54871,49.09901]]]]}},{"type":"Feature","properties":{"cluster_id":62,"hex_count":4,"total_addressable_demand":2443.7731162415657,"mean_opportunity_score":65.57283839940379,"dominant_class":"proven_market_no_pv","province":"QC","anchor_city":"Vaudreuil-Dorion"},"geometry":{"type":"MultiPolygon","coordinates":[[[[-74.13019,45.40358],[-74.13235,45.39889],[-74.13941,45.39778],[-74.1443,45.40137],[-74.15136,45.40026],[-74.15626,45.40384],[-74.16332,45.40274],[-74.16822,45.40632],[-74.17528,45.40521],[-74.18018,45.4088],[-74.17802,45.41349],[-74.17096,45.4146],[-74.16606,45.41101],[-74.159,45.41212],[-74.1541,45.40854],[-74.14704,45.40964],[-74.14214,45.40606],[-74.13509,45.40716],[-74.13019,45.40358]]]]}},{"type":"Feature","properties":{"cluster_id":63,"hex_count":5,"total_addressable_demand":2434.798317533547,"mean_opportunity_score":83.66284756779154,"dominant_class":"true_whitespace","province":"QC","anchor_city":"Edmundston"},"geometry":{"type":"MultiPolygon","coordinates":[[[[-68.16114,48.57797],[-68.16411,48.57331],[-68.17177,48.57258],[-68.17647,48.57651],[-68.18413,48.57578],[-68.18883,48.57971],[-68.1965,48.57897],[-68.2012,48.5829],[-68.19823,48.58757],[-68.20293,48.5915],[-68.19997,48.59616],[-68.1923,48.59689],[-68.1876,48.59296],[-68.17993,48.59369],[-68.17523,48.58976],[-68.1782,48.5851],[-68.1735,48.58117],[-68.16584,48.5819],[-68.16114,48.57797]]]]}},{"type":"Feature","properties":{"cluster_id":64,"hex_count":4,"total_addressable_demand":2402.954754387019,"mean_opportunity_score":74.74345805317566,"dominant_class":"true_whitespace","province":"ON","anchor_city":"Simcoe"},"geometry":{"type":"MultiPolygon","coordinates":[[[[-80.50223,42.83691],[-80.50732,42.84012],[-80.50592,42.84479],[-80.49942,42.84624],[-80.49802,42.85091],[-80.50311,42.85413],[-80.50171,42.8588],[-80.49521,42.86024],[-80.49012,42.85702],[-80.48362,42.85847],[-80.47853,42.85525],[-80.47994,42.85058],[-80.48643,42.84914],[-80.48784,42.84447],[-80.49433,42.84302],[-80.49573,42.83835],[-80.50223,42.83691]]]]}},{"type":"Feature","properties":{"cluster_id":65,"hex_count":4,"total_addressable_demand":2395.732502864594,"mean_opportunity_score":65.7948890466177,"dominant_class":"true_whitespace","province":"QC","anchor_city":"Saint-Romuald"},"geometry":{"type":"MultiPolygon","coordinates":[[[[-71.30613,46.65025],[-71.31344,46.64932],[-71.31823,46.65306],[-71.32553,46.65213],[-71.33032,46.65587],[-71.3278,46.66055],[-71.3205,46.66149],[-71.31571,46.65774],[-71.3084,46.65868],[-71.30588,46.66336],[-71.29857,46.66429],[-71.29379,46.66055],[-71.28648,46.66148],[-71.28169,46.65773],[-71.28421,46.65306],[-71.29152,46.65212],[-71.29631,46.65587],[-71.30361,46.65493],[-71.30613,46.65025]]]]}},{"type":"Feature","properties":{"cluster_id":66,"hex_count":5,"total_addressable_demand":2391.442942699179,"mean_opportunity_score":83.6241896806921,"dominant_class":"true_whitespace","province":"ON","anchor_city":"Kenora"},"geometry":{"type":"MultiPolygon","coordinates":[[[[-93.36075,48.61259],[-93.36083,48.60763],[-93.36746,48.60533],[-93.37401,48.60798],[-93.38064,48.60568],[-93.3872,48.60833],[-93.39383,48.60603],[-93.40039,48.60868],[-93.40032,48.61363],[-93.39369,48.61594],[-93.39362,48.62089],[-93.38699,48.6232],[-93.38043,48.62054],[-93.3738,48.62285],[-93.36724,48.62019],[-93.36731,48.61524],[-93.36075,48.61259]]]]}},{"type":"Feature","properties":{"cluster_id":67,"hex_count":5,"total_addressable_demand":2389.7336174814463,"mean_opportunity_score":70.79966200731215,"dominant_class":"true_whitespace","province":"NS","anchor_city":"Sydney"},"geometry":{"type":"MultiPolygon","coordinates":[[[[-60.09572,46.23686],[-60.1029,46.23664],[-60.10653,46.24073],[-60.10297,46.24503],[-60.09579,46.24525],[-60.09223,46.24956],[-60.09585,46.25364],[-60.09229,46.25795],[-60.0851,46.25816],[-60.08148,46.25408],[-60.07429,46.25429],[-60.07067,46.25021],[-60.07423,46.2459],[-60.07061,46.24182],[-60.07417,46.23752],[-60.08135,46.2373],[-60.08498,46.24138],[-60.09216,46.24117],[-60.09572,46.23686]]]]}},{"type":"Feature","properties":{"cluster_id":68,"hex_count":5,"total_addressable_demand":2337.1176843726357,"mean_opportunity_score":66.23655193444372,"dominant_class":"true_whitespace","province":"QC","anchor_city":"Drummondville"},"geometry":{"type":"MultiPolygon","coordinates":[[[[-72.41204,45.83227],[-72.4144,45.8276],[-72.42155,45.8266],[-72.42635,45.83027],[-72.4335,45.82927],[-72.4383,45.83294],[-72.43595,45.83761],[-72.44075,45.84128],[-72.43839,45.84595],[-72.44319,45.84962],[-72.44083,45.8543],[-72.43367,45.8553],[-72.42887,45.85163],[-72.43123,45.84696],[-72.42643,45.84329],[-72.41927,45.84429],[-72.41447,45.84062],[-72.41683,45.83594],[-72.41204,45.83227]]]]}},{"type":"Feature","properties":{"cluster_id":69,"hex_count":3,"total_addressable_demand":2256.9202935837293,"mean_opportunity_score":59.54124259594894,"dominant_class":"proven_market_no_pv","province":"AB","anchor_city":"Edmonton"},"geometry":{"type":"MultiPolygon","coordinates":[[[[-113.57476,53.48106],[-113.5825,53.48236],[-113.58493,53.48703],[-113.57963,53.49041],[-113.58207,53.49508],[-113.57677,53.49846],[-113.56903,53.49716],[-113.5666,53.49248],[-113.55886,53.49118],[-113.55642,53.48651],[-113.56172,53.48313],[-113.56946,53.48443],[-113.57476,53.48106]]]]}},{"type":"Feature","properties":{"cluster_id":70,"hex_count":4,"total_addressable_demand":2245.634106888108,"mean_opportunity_score":63.683322346092794,"dominant_class":"proven_market_no_pv","province":"QC","anchor_city":"Saint-Romuald"},"geometry":{"type":"MultiPolygon","coordinates":[[[[-71.16894,46.70257],[-71.17147,46.69789],[-71.17879,46.69696],[-71.18357,46.70071],[-71.19088,46.69979],[-71.19566,46.70354],[-71.20298,46.70261],[-71.20776,46.70636],[-71.20523,46.71104],[-71.21002,46.71479],[-71.20748,46.71947],[-71.20016,46.7204],[-71.19538,46.71665],[-71.19791,46.71197],[-71.19313,46.70822],[-71.18581,46.70914],[-71.18103,46.70539],[-71.17372,46.70632],[-71.16894,46.70257]]]]}},{"type":"Feature","properties":{"cluster_id":71,"hex_count":4,"total_addressable_demand":2154.946161819896,"mean_opportunity_score":68.87593077691231,"dominant_class":"true_whitespace","province":"ON","anchor_city":"Brampton"},"geometry":{"type":"MultiPolygon","coordinates":[[[[-79.84727,43.86343],[-79.84877,43.85872],[-79.85544,43.85729],[-79.8606,43.86057],[-79.86726,43.85914],[-79.87243,43.86242],[-79.87093,43.86713],[-79.87609,43.87042],[-79.87459,43.87513],[-79.86793,43.87656],[-79.86643,43.88127],[-79.85976,43.8827],[-79.8546,43.87942],[-79.8561,43.87471],[-79.86276,43.87328],[-79.86426,43.86856],[-79.8591,43.86528],[-79.85244,43.86671],[-79.84727,43.86343]]]]}},{"type":"Feature","properties":{"cluster_id":72,"hex_count":4,"total_addressable_demand":2146.1934140153076,"mean_opportunity_score":64.0902542559227,"dominant_class":"proven_market_no_pv","province":"QC","anchor_city":"Saint-Lin-Laurentides"},"geometry":{"type":"MultiPolygon","coordinates":[[[[-73.73943,45.80385],[-73.74656,45.80277],[-73.75147,45.80638],[-73.74925,45.81108],[-73.75416,45.8147],[-73.75194,45.8194],[-73.74481,45.82049],[-73.7399,45.81687],[-73.73277,45.81795],[-73.72786,45.81434],[-73.72073,45.81542],[-73.71582,45.8118],[-73.71805,45.8071],[-73.72518,45.80602],[-73.73008,45.80964],[-73.73721,45.80855],[-73.73943,45.80385]]]]}},{"type":"Feature","properties":{"cluster_id":73,"hex_count":3,"total_addressable_demand":2123.6498531573898,"mean_opportunity_score":59.72065370255766,"dominant_class":"proven_market_no_pv","province":"AB","anchor_city":"Calgary"},"geometry":{"type":"MultiPolygon","coordinates":[[[[-114.05305,51.13909],[-114.06031,51.14039],[-114.06265,51.14498],[-114.05772,51.14826],[-114.06006,51.15285],[-114.05514,51.15614],[-114.04788,51.15484],[-114.04554,51.15025],[-114.03828,51.14895],[-114.03594,51.14436],[-114.04086,51.14107],[-114.04812,51.14237],[-114.05305,51.13909]]]]}},{"type":"Feature","properties":{"cluster_id":74,"hex_count":3,"total_addressable_demand":2054.2833214945567,"mean_opportunity_score":58.47657952314777,"dominant_class":"proven_market_no_pv","province":"AB","anchor_city":"Calgary"},"geometry":{"type":"MultiPolygon","coordinates":[[[[-114.01647,51.02836],[-114.02138,51.02508],[-114.02862,51.02638],[-114.03095,51.03097],[-114.03819,51.03227],[-114.04052,51.03685],[-114.03561,51.04013],[-114.02837,51.03883],[-114.02345,51.04211],[-114.01621,51.04081],[-114.01388,51.03622],[-114.0188,51.03294],[-114.01647,51.02836]]]]}},{"type":"Feature","properties":{"cluster_id":75,"hex_count":3,"total_addressable_demand":2046.1051951534862,"mean_opportunity_score":69.28982874651834,"dominant_class":"true_whitespace","province":"BC","anchor_city":"Sidney"},"geometry":{"type":"MultiPolygon","coordinates":[[[[-123.45764,48.56801],[-123.46426,48.56877],[-123.46593,48.57284],[-123.46098,48.57616],[-123.46265,48.58023],[-123.45769,48.58355],[-123.45107,48.58279],[-123.4494,48.57871],[-123.44278,48.57795],[-123.44112,48.57388],[-123.44607,48.57056],[-123.45269,48.57133],[-123.45764,48.56801]]]]}},{"type":"Feature","properties":{"cluster_id":76,"hex_count":3,"total_addressable_demand":1993.6607150199166,"mean_opportunity_score":68.08817996790752,"dominant_class":"proven_market_no_pv","province":"QC","anchor_city":"Orleans"},"geometry":{"type":"MultiPolygon","coordinates":[[[[-75.47835,45.52039],[-75.48038,45.51567],[-75.48742,45.51448],[-75.49245,45.51801],[-75.49949,45.51682],[-75.50451,45.52035],[-75.50249,45.52507],[-75.49545,45.52626],[-75.49342,45.53099],[-75.48637,45.53218],[-75.48135,45.52865],[-75.48338,45.52392],[-75.47835,45.52039]]]]}},{"type":"Feature","properties":{"cluster_id":77,"hex_count":4,"total_addressable_demand":1935.7244818911547,"mean_opportunity_score":75.57724872276597,"dominant_class":"true_whitespace","province":"QC","anchor_city":"Roberval"},"geometry":{"type":"MultiPolygon","coordinates":[[[[-72.43229,48.64675],[-72.43481,48.64197],[-72.44244,48.64095],[-72.44756,48.64471],[-72.4552,48.6437],[-72.46032,48.64746],[-72.45781,48.65224],[-72.46293,48.656],[-72.46042,48.66078],[-72.45278,48.6618],[-72.44766,48.65804],[-72.44002,48.65905],[-72.4349,48.65529],[-72.43741,48.65051],[-72.43229,48.64675]]]]}},{"type":"Feature","properties":{"cluster_id":78,"hex_count":3,"total_addressable_demand":1876.967693332012,"mean_opportunity_score":86.52571358297406,"dominant_class":"true_whitespace","province":"YT","anchor_city":"Prince Rupert"},"geometry":{"type":"MultiPolygon","coordinates":[[[[-135.00955,60.70092],[-135.0126,60.6968],[-135.02115,60.69647],[-135.02666,60.70026],[-135.03521,60.69993],[-135.04071,60.70372],[-135.03766,60.70784],[-135.02911,60.70817],[-135.02606,60.71229],[-135.01751,60.71262],[-135.012,60.70883],[-135.01505,60.70471],[-135.00955,60.70092]]]]}},{"type":"Feature","properties":{"cluster_id":79,"hex_count":4,"total_addressable_demand":1863.2583134701702,"mean_opportunity_score":64.57696783008436,"dominant_class":"true_whitespace","province":"QC","anchor_city":"Sherbrooke"},"geometry":{"type":"MultiPolygon","coordinates":[[[[-71.859,45.35885],[-71.86608,45.35789],[-71.87078,45.36156],[-71.87787,45.3606],[-71.88257,45.36427],[-71.88018,45.36891],[-71.87309,45.36988],[-71.8707,45.37452],[-71.86361,45.37548],[-71.85891,45.37181],[-71.85182,45.37277],[-71.84712,45.36909],[-71.84951,45.36445],[-71.8566,45.36349],[-71.859,45.35885]]]]}},{"type":"Feature","properties":{"cluster_id":80,"hex_count":3,"total_addressable_demand":1859.4815263005728,"mean_opportunity_score":75.51039963187918,"dominant_class":"proven_market_no_pv","province":"QC","anchor_city":"St-Lambert-de-Lauzon"},"geometry":{"type":"MultiPolygon","coordinates":[[[[-70.68713,46.13324],[-70.69436,46.13235],[-70.69903,46.1361],[-70.69648,46.14074],[-70.68925,46.14163],[-70.6867,46.14628],[-70.67947,46.14717],[-70.67691,46.15181],[-70.66968,46.15271],[-70.66501,46.14895],[-70.66756,46.14431],[-70.67479,46.14342],[-70.67735,46.13878],[-70.68458,46.13788],[-70.68713,46.13324]]]]}},{"type":"Feature","properties":{"cluster_id":81,"hex_count":3,"total_addressable_demand":1826.367975236967,"mean_opportunity_score":80.96127802679472,"dominant_class":"true_whitespace","province":"QC","anchor_city":"Windsor"},"geometry":{"type":"MultiPolygon","coordinates":[[[[-71.92783,45.76455],[-71.93498,45.76358],[-71.93973,45.76726],[-71.93733,45.77192],[-71.94208,45.77561],[-71.93967,45.78027],[-71.93252,45.78124],[-71.92777,45.77755],[-71.92061,45.77852],[-71.91587,45.77483],[-71.91827,45.77018],[-71.92543,45.7692],[-71.92783,45.76455]]]]}},{"type":"Feature","properties":{"cluster_id":82,"hex_count":4,"total_addressable_demand":1763.0115625168414,"mean_opportunity_score":61.71721971587941,"dominant_class":"proven_market_no_pv","province":"QC","anchor_city":"Val-B\u00e9lair"},"geometry":{"type":"MultiPolygon","coordinates":[[[[-71.35987,46.9051],[-71.3624,46.90041],[-71.36974,46.89947],[-71.37456,46.90322],[-71.38191,46.90228],[-71.38673,46.90603],[-71.38421,46.91072],[-71.38903,46.91447],[-71.3865,46.91916],[-71.37915,46.9201],[-71.37433,46.91635],[-71.36698,46.91729],[-71.36216,46.91354],[-71.36469,46.90885],[-71.35987,46.9051]]]]}},{"type":"Feature","properties":{"cluster_id":83,"hex_count":3,"total_addressable_demand":1722.203490643066,"mean_opportunity_score":65.2495017935603,"dominant_class":"true_whitespace","province":"QC","anchor_city":"Mont-Saint-Hilaire"},"geometry":{"type":"MultiPolygon","coordinates":[[[[-73.15743,45.42125],[-73.15969,45.41658],[-73.16676,45.41554],[-73.17158,45.41916],[-73.16932,45.42383],[-73.17414,45.42746],[-73.17188,45.43213],[-73.1767,45.43576],[-73.17444,45.44043],[-73.16736,45.44148],[-73.16254,45.43785],[-73.1648,45.43318],[-73.15998,45.42955],[-73.16224,45.42488],[-73.15743,45.42125]]]]}},{"type":"Feature","properties":{"cluster_id":84,"hex_count":3,"total_addressable_demand":1714.0635719531542,"mean_opportunity_score":67.87639349882168,"dominant_class":"true_whitespace","province":"QC","anchor_city":"Windsor"},"geometry":{"type":"MultiPolygon","coordinates":[[[[-72.01002,45.38569],[-72.01711,45.38471],[-72.02182,45.38838],[-72.01945,45.39303],[-72.02416,45.3967],[-72.02179,45.40134],[-72.01469,45.40232],[-72.00998,45.39865],[-72.00289,45.39962],[-71.99817,45.39595],[-72.00055,45.39131],[-72.00764,45.39033],[-72.01002,45.38569]]]]}},{"type":"Feature","properties":{"cluster_id":85,"hex_count":4,"total_addressable_demand":1661.5654686676614,"mean_opportunity_score":71.74644491186753,"dominant_class":"true_whitespace","province":"NB","anchor_city":"Amherst"},"geometry":{"type":"MultiPolygon","coordinates":[[[[-64.37914,45.88636],[-64.38319,45.89032],[-64.38004,45.89476],[-64.38408,45.89872],[-64.38093,45.90317],[-64.38497,45.90712],[-64.38182,45.91157],[-64.37463,45.91206],[-64.37058,45.90811],[-64.37373,45.90366],[-64.36969,45.8997],[-64.3625,45.90019],[-64.35846,45.89624],[-64.36161,45.89179],[-64.3688,45.8913],[-64.37195,45.88686],[-64.37914,45.88636]]]]}},{"type":"Feature","properties":{"cluster_id":86,"hex_count":4,"total_addressable_demand":1656.8253499562215,"mean_opportunity_score":72.29844471558684,"dominant_class":"true_whitespace","province":"ON","anchor_city":"Chelmsford"},"geometry":{"type":"MultiPolygon","coordinates":[[[[-81.1382,46.43124],[-81.13964,46.42639],[-81.14665,46.42485],[-81.15221,46.42814],[-81.15921,46.42659],[-81.16477,46.42989],[-81.16333,46.43473],[-81.15632,46.43628],[-81.15488,46.44113],[-81.14787,46.44268],[-81.14642,46.44752],[-81.13941,46.44907],[-81.13385,46.44578],[-81.1353,46.44093],[-81.14231,46.43938],[-81.14376,46.43454],[-81.1382,46.43124]]]]}},{"type":"Feature","properties":{"cluster_id":87,"hex_count":3,"total_addressable_demand":1623.9927139389438,"mean_opportunity_score":81.92239594617475,"dominant_class":"true_whitespace","province":"QC","anchor_city":"Sherbrooke"},"geometry":{"type":"MultiPolygon","coordinates":[[[[-71.79235,45.13089],[-71.79473,45.12626],[-71.80179,45.12531],[-71.80646,45.12897],[-71.81351,45.12801],[-71.81818,45.13168],[-71.8158,45.13631],[-71.80874,45.13727],[-71.80636,45.1419],[-71.7993,45.14286],[-71.79463,45.13919],[-71.79702,45.13456],[-71.79235,45.13089]]]]}},{"type":"Feature","properties":{"cluster_id":88,"hex_count":3,"total_addressable_demand":1576.4476756461627,"mean_opportunity_score":78.31236047108116,"dominant_class":"true_whitespace","province":"BC","anchor_city":"Cranbrook"},"geometry":{"type":"MultiPolygon","coordinates":[[[[-115.97539,49.67781],[-115.9799,49.67454],[-115.98685,49.67573],[-115.98929,49.6802],[-115.98478,49.68347],[-115.98722,49.68793],[-115.99418,49.68912],[-115.99662,49.69359],[-115.99211,49.69686],[-115.98515,49.69566],[-115.98271,49.6912],[-115.97575,49.69001],[-115.97331,49.68554],[-115.97783,49.68227],[-115.97539,49.67781]]]]}},{"type":"Feature","properties":{"cluster_id":89,"hex_count":3,"total_addressable_demand":1556.1163872772772,"mean_opportunity_score":84.73835312166267,"dominant_class":"true_whitespace","province":"QC","anchor_city":"Atholville"},"geometry":{"type":"MultiPolygon","coordinates":[[[[-66.87469,50.02205],[-66.8779,50.01738],[-66.88583,50.01674],[-66.89055,50.02077],[-66.89849,50.02013],[-66.90322,50.02415],[-66.90001,50.02882],[-66.89207,50.02946],[-66.88886,50.03412],[-66.88093,50.03476],[-66.8762,50.03074],[-66.87941,50.02607],[-66.87469,50.02205]]]]}},{"type":"Feature","properties":{"cluster_id":90,"hex_count":3,"total_addressable_demand":1406.7046274238437,"mean_opportunity_score":84.3524002554686,"dominant_class":"true_whitespace","province":"YT","anchor_city":"Prince Rupert"},"geometry":{"type":"MultiPolygon","coordinates":[[[[-135.04563,60.71953],[-135.04012,60.71575],[-135.04317,60.71163],[-135.05172,60.7113],[-135.05723,60.71508],[-135.06578,60.71475],[-135.07129,60.71854],[-135.06825,60.72266],[-135.07376,60.72644],[-135.07072,60.73056],[-135.06216,60.7309],[-135.05665,60.72711],[-135.0597,60.72299],[-135.05419,60.7192],[-135.04563,60.71953]]]]}},{"type":"Feature","properties":{"cluster_id":91,"hex_count":3,"total_addressable_demand":1406.2369032809113,"mean_opportunity_score":62.590074817426235,"dominant_class":"proven_market_no_pv","province":"QC","anchor_city":"Mirabel"},"geometry":{"type":"MultiPolygon","coordinates":[[[[-74.03088,45.63257],[-74.03798,45.63146],[-74.04289,45.63506],[-74.04071,45.63976],[-74.04563,45.64336],[-74.04345,45.64806],[-74.03635,45.64916],[-74.03143,45.64556],[-74.02433,45.64667],[-74.01942,45.64307],[-74.0216,45.63837],[-74.0287,45.63727],[-74.03088,45.63257]]]]}},{"type":"Feature","properties":{"cluster_id":92,"hex_count":3,"total_addressable_demand":1398.0657685750546,"mean_opportunity_score":67.90660316421366,"dominant_class":"proven_market_no_pv","province":"QC","anchor_city":"Repentigny"},"geometry":{"type":"MultiPolygon","coordinates":[[[[-73.42883,45.88553],[-73.43598,45.88446],[-73.44087,45.88809],[-73.43862,45.89279],[-73.43147,45.89386],[-73.42921,45.89855],[-73.4341,45.90219],[-73.43184,45.90688],[-73.42469,45.90795],[-73.4198,45.90432],[-73.42206,45.89962],[-73.41717,45.89599],[-73.41943,45.89129],[-73.42657,45.89022],[-73.42883,45.88553]]]]}},{"type":"Feature","properties":{"cluster_id":93,"hex_count":3,"total_addressable_demand":1379.6131383756606,"mean_opportunity_score":82.89987058677193,"dominant_class":"true_whitespace","province":"QC","anchor_city":"Atholville"},"geometry":{"type":"MultiPolygon","coordinates":[[[[-67.41462,48.46312],[-67.41766,48.45849],[-67.4253,48.45781],[-67.42991,48.46176],[-67.43756,48.46108],[-67.44217,48.46503],[-67.43913,48.46967],[-67.43148,48.47035],[-67.42845,48.47499],[-67.4208,48.47567],[-67.41619,48.47171],[-67.41923,48.46708],[-67.41462,48.46312]]]]}},{"type":"Feature","properties":{"cluster_id":94,"hex_count":3,"total_addressable_demand":1376.500757842071,"mean_opportunity_score":69.53912818539563,"dominant_class":"true_whitespace","province":"QC","anchor_city":"Shawinigan"},"geometry":{"type":"MultiPolygon","coordinates":[[[[-72.6453,46.61923],[-72.64767,46.61452],[-72.65495,46.6135],[-72.65986,46.61719],[-72.66714,46.61617],[-72.67205,46.61986],[-72.66967,46.62457],[-72.66239,46.62559],[-72.66001,46.6303],[-72.65273,46.63132],[-72.64782,46.62763],[-72.6502,46.62292],[-72.6453,46.61923]]]]}},{"type":"Feature","properties":{"cluster_id":95,"hex_count":3,"total_addressable_demand":1365.7643512201885,"mean_opportunity_score":63.27672648375185,"dominant_class":"proven_market_no_pv","province":"QC","anchor_city":"Chicoutimi"},"geometry":{"type":"MultiPolygon","coordinates":[[[[-71.08069,48.4421],[-71.08334,48.43736],[-71.09096,48.43644],[-71.09593,48.44025],[-71.10355,48.43932],[-71.10852,48.44313],[-71.10587,48.44787],[-71.09825,48.4488],[-71.0956,48.45354],[-71.08798,48.45447],[-71.08301,48.45065],[-71.08566,48.44591],[-71.08069,48.4421]]]]}},{"type":"Feature","properties":{"cluster_id":96,"hex_count":3,"total_addressable_demand":1314.9590768930507,"mean_opportunity_score":70.93661701160717,"dominant_class":"true_whitespace","province":"BC","anchor_city":"Parksville"},"geometry":{"type":"MultiPolygon","coordinates":[[[[-124.43793,49.34812],[-124.43621,49.34412],[-124.44113,49.3408],[-124.44779,49.34148],[-124.44951,49.34547],[-124.45616,49.34615],[-124.46109,49.34283],[-124.46774,49.3435],[-124.46946,49.3475],[-124.46454,49.35082],[-124.45788,49.35014],[-124.45296,49.35346],[-124.4463,49.35279],[-124.44458,49.34879],[-124.43793,49.34812]]]]}},{"type":"Feature","properties":{"cluster_id":97,"hex_count":3,"total_addressable_demand":1284.829713096021,"mean_opportunity_score":78.63020774275243,"dominant_class":"true_whitespace","province":"QC","anchor_city":"La Pocati\u00e8re"},"geometry":{"type":"MultiPolygon","coordinates":[[[[-70.49688,47.44415],[-70.49208,47.44034],[-70.49473,47.43566],[-70.50218,47.43477],[-70.50698,47.43857],[-70.51442,47.43769],[-70.51923,47.44149],[-70.51658,47.44618],[-70.52138,47.44998],[-70.51873,47.45467],[-70.51128,47.45556],[-70.50648,47.45175],[-70.50913,47.44707],[-70.50433,47.44326],[-70.49688,47.44415]]]]}},{"type":"Feature","properties":{"cluster_id":98,"hex_count":3,"total_addressable_demand":1277.3974029867918,"mean_opportunity_score":75.038179513517,"dominant_class":"true_whitespace","province":"QC","anchor_city":"St-Lambert-de-Lauzon"},"geometry":{"type":"MultiPolygon","coordinates":[[[[-70.77141,46.20073],[-70.77864,46.19983],[-70.78333,46.20357],[-70.78079,46.20822],[-70.78548,46.21197],[-70.78293,46.21662],[-70.77569,46.21752],[-70.771,46.21377],[-70.76376,46.21467],[-70.75907,46.21092],[-70.76162,46.20627],[-70.76886,46.20537],[-70.77141,46.20073]]]]}},{"type":"Feature","properties":{"cluster_id":99,"hex_count":3,"total_addressable_demand":1275.1566726504977,"mean_opportunity_score":82.45474919895281,"dominant_class":"true_whitespace","province":"QC","anchor_city":"Sherbrooke"},"geometry":{"type":"MultiPolygon","coordinates":[[[[-70.86876,45.57941],[-70.86413,45.57568],[-70.86664,45.57106],[-70.87377,45.57016],[-70.8784,45.57388],[-70.88554,45.57297],[-70.89017,45.57669],[-70.89731,45.57579],[-70.90194,45.57951],[-70.89944,45.58414],[-70.89231,45.58504],[-70.88767,45.58132],[-70.88053,45.58222],[-70.8759,45.5785],[-70.86876,45.57941]]]]}},{"type":"Feature","properties":{"cluster_id":100,"hex_count":3,"total_addressable_demand":1237.5951431292222,"mean_opportunity_score":64.41516684685195,"dominant_class":"proven_market_no_pv","province":"NL","anchor_city":"St. John's"},"geometry":{"type":"MultiPolygon","coordinates":[[[[-52.83615,47.616],[-52.84334,47.61626],[-52.84626,47.62055],[-52.84199,47.62458],[-52.8449,47.62887],[-52.84063,47.63291],[-52.83345,47.63265],[-52.83053,47.62836],[-52.82335,47.6281],[-52.82043,47.62381],[-52.8247,47.61978],[-52.83189,47.62003],[-52.83615,47.616]]]]}},{"type":"Feature","properties":{"cluster_id":101,"hex_count":3,"total_addressable_demand":1095.1939823013195,"mean_opportunity_score":82.18318035856187,"dominant_class":"true_whitespace","province":"MB","anchor_city":"Nipawin"},"geometry":{"type":"MultiPolygon","coordinates":[[[[-101.83888,54.76766],[-101.84578,54.76473],[-101.85375,54.76683],[-101.85481,54.77187],[-101.84791,54.77479],[-101.84897,54.77982],[-101.85694,54.78193],[-101.858,54.78696],[-101.85109,54.78989],[-101.84312,54.78778],[-101.84206,54.78275],[-101.83409,54.78065],[-101.83303,54.77562],[-101.83994,54.77269],[-101.83888,54.76766]]]]}},{"type":"Feature","properties":{"cluster_id":102,"hex_count":3,"total_addressable_demand":1074.302877454227,"mean_opportunity_score":76.83824992700373,"dominant_class":"true_whitespace","province":"QC","anchor_city":"Plessisville"},"geometry":{"type":"MultiPolygon","coordinates":[[[[-71.35357,46.04445],[-71.35605,46.03979],[-71.36325,46.03886],[-71.36798,46.04258],[-71.37518,46.04164],[-71.37991,46.04536],[-71.37743,46.05002],[-71.37023,46.05096],[-71.36775,46.05561],[-71.36054,46.05655],[-71.35581,46.05283],[-71.35829,46.04817],[-71.35357,46.04445]]]]}},{"type":"Feature","properties":{"cluster_id":103,"hex_count":3,"total_addressable_demand":1073.2941446875564,"mean_opportunity_score":67.90780813628281,"dominant_class":"true_whitespace","province":"QC","anchor_city":"Val-B\u00e9lair"},"geometry":{"type":"MultiPolygon","coordinates":[[[[-71.36304,47.00081],[-71.36557,46.99612],[-71.37293,46.99518],[-71.37776,46.99893],[-71.38513,46.99799],[-71.38996,47.00174],[-71.38743,47.00644],[-71.38007,47.00738],[-71.37753,47.01207],[-71.37017,47.01302],[-71.36534,47.00926],[-71.36787,47.00457],[-71.36304,47.00081]]]]}},{"type":"Feature","properties":{"cluster_id":104,"hex_count":3,"total_addressable_demand":992.025886059861,"mean_opportunity_score":65.26285645660577,"dominant_class":"true_whitespace","province":"ON","anchor_city":"St Thomas"},"geometry":{"type":"MultiPolygon","coordinates":[[[[-81.20487,42.66454],[-81.2062,42.65987],[-81.21264,42.65839],[-81.21776,42.66157],[-81.2242,42.66008],[-81.22932,42.66326],[-81.228,42.66793],[-81.22155,42.66941],[-81.22023,42.67408],[-81.21379,42.67556],[-81.20867,42.67238],[-81.20999,42.66772],[-81.20487,42.66454]]]]}},{"type":"Feature","properties":{"cluster_id":105,"hex_count":3,"total_addressable_demand":977.3685764175891,"mean_opportunity_score":62.0149571952084,"dominant_class":"proven_market_no_pv","province":"BC","anchor_city":"Kelowna"},"geometry":{"type":"MultiPolygon","coordinates":[[[[-119.36998,49.83027],[-119.3741,49.82692],[-119.38099,49.82789],[-119.38375,49.83222],[-119.39064,49.8332],[-119.39341,49.83753],[-119.38929,49.84089],[-119.3824,49.83992],[-119.37828,49.84328],[-119.37139,49.8423],[-119.36862,49.83797],[-119.37274,49.83461],[-119.36998,49.83027]]]]}},{"type":"Feature","properties":{"cluster_id":106,"hex_count":3,"total_addressable_demand":923.8654127744526,"mean_opportunity_score":81.19255120658738,"dominant_class":"true_whitespace","province":"NT_NU","anchor_city":"Peace River"},"geometry":{"type":"MultiPolygon","coordinates":[[[[-115.77146,60.80619],[-115.77771,60.80247],[-115.78729,60.80347],[-115.79062,60.80818],[-115.78438,60.8119],[-115.78771,60.81661],[-115.7973,60.81761],[-115.80064,60.82232],[-115.79439,60.82603],[-115.7848,60.82504],[-115.78147,60.82033],[-115.77188,60.81933],[-115.76855,60.81462],[-115.7748,60.8109],[-115.77146,60.80619]]]]}}]}